{
  "type": "FeatureCollection",
  "features": [
    {
      "type": "Feature",
      "properties": {
        "norad_id": 66446,
        "name": "STARLINK-34986",
        "group": "last-30-days",
        "lat": -41.58781355554878,
        "lon": 33.022835882263394,
        "alt_km": 417.4723010058178,
        "timestamp": "2025-12-02T19:35:49.342710+00:00",
        "meta_object_name": "STARLINK-34986",
        "meta_object_id": "2025-259AA",
        "meta_epoch": "2025-12-02T12:00:05.998752",
        "meta_mean_motion": 15.50538374,
        "meta_eccentricity": 0.0001474,
        "meta_inclination": 42.9996,
        "meta_ra_of_asc_node": 107.1214,
        "meta_arg_of_pericenter": 253.8645,
        "meta_mean_anomaly": 60.6565,
        "meta_ephemeris_type": 0,
        "meta_classification_type": "U",
        "meta_norad_cat_id": 66446,
        "meta_element_set_no": 999,
        "meta_rev_at_epoch": 463,
        "meta_bstar": 0.00095297,
        "meta_mean_motion_dot": 0.00055883,
        "meta_mean_motion_ddot": 0,
        "tle_line1": "1 66446U 25259AA  25336.50006943  .00055883  00000+0  95297-3 0  9998",
        "tle_line2": "2 66446  42.9996 107.1214 0001474 253.8645  60.6565 15.50538374  4634"
      },
      "geometry": {
        "type": "Point",
        "coordinates": [
          33.022835882263394,
          -41.58781355554878
        ]
      }
    },
    {
      "type": "Feature",
      "properties": {
        "norad_id": 66447,
        "name": "STARLINK-34851",
        "group": "last-30-days",
        "lat": -40.65303581509138,
        "lon": 38.110206071565976,
        "alt_km": 417.26141057703353,
        "timestamp": "2025-12-02T19:35:49.342721+00:00",
        "meta_object_name": "STARLINK-34851",
        "meta_object_id": "2025-259AB",
        "meta_epoch": "2025-12-02T12:00:05.998752",
        "meta_mean_motion": 15.50597982,
        "meta_eccentricity": 0.0001763,
        "meta_inclination": 42.9996,
        "meta_ra_of_asc_node": 107.112,
        "meta_arg_of_pericenter": 269.2585,
        "meta_mean_anomaly": 49.2063,
        "meta_ephemeris_type": 0,
        "meta_classification_type": "U",
        "meta_norad_cat_id": 66447,
        "meta_element_set_no": 999,
        "meta_rev_at_epoch": 452,
        "meta_bstar": -0.001529,
        "meta_mean_motion_dot": -0.0008909,
        "meta_mean_motion_ddot": 0,
        "tle_line1": "1 66447U 25259AB  25336.50006943 -.00089090  00000+0 -15290-2 0  9992",
        "tle_line2": "2 66447  42.9996 107.1120 0001763 269.2585  49.2063 15.50597982  4520"
      },
      "geometry": {
        "type": "Point",
        "coordinates": [
          38.110206071565976,
          -40.65303581509138
        ]
      }
    },
    {
      "type": "Feature",
      "properties": {
        "norad_id": 66448,
        "name": "STARLINK-35355",
        "group": "last-30-days",
        "lat": -40.1554563971119,
        "lon": 40.37244551324344,
        "alt_km": 417.4548952206478,
        "timestamp": "2025-12-02T19:35:49.342744+00:00",
        "meta_object_name": "STARLINK-35355",
        "meta_object_id": "2025-259AC",
        "meta_epoch": "2025-12-02T12:00:05.998752",
        "meta_mean_motion": 15.50545626,
        "meta_eccentricity": 0.0001484,
        "meta_inclination": 42.9998,
        "meta_ra_of_asc_node": 107.1076,
        "meta_arg_of_pericenter": 252.4719,
        "meta_mean_anomaly": 67.7965,
        "meta_ephemeris_type": 0,
        "meta_classification_type": "U",
        "meta_norad_cat_id": 66448,
        "meta_element_set_no": 999,
        "meta_rev_at_epoch": 463,
        "meta_bstar": 0.00088603,
        "meta_mean_motion_dot": 0.00051921,
        "meta_mean_motion_ddot": 0,
        "tle_line1": "1 66448U 25259AC  25336.50006943  .00051921  00000+0  88603-3 0  9992",
        "tle_line2": "2 66448  42.9998 107.1076 0001484 252.4719  67.7965 15.50545626  4632"
      },
      "geometry": {
        "type": "Point",
        "coordinates": [
          40.37244551324344,
          -40.1554563971119
        ]
      }
    },
    {
      "type": "Feature",
      "properties": {
        "norad_id": 66449,
        "name": "STARLINK-34720",
        "group": "last-30-days",
        "lat": -39.57799176634369,
        "lon": 42.741447480455044,
        "alt_km": 417.51289843209906,
        "timestamp": "2025-12-02T19:35:49.342755+00:00",
        "meta_object_name": "STARLINK-34720",
        "meta_object_id": "2025-259AD",
        "meta_epoch": "2025-12-02T12:00:05.998752",
        "meta_mean_motion": 15.50547493,
        "meta_eccentricity": 0.0001389,
        "meta_inclination": 42.9998,
        "meta_ra_of_asc_node": 107.1025,
        "meta_arg_of_pericenter": 250.6783,
        "meta_mean_anomaly": 71.5021,
        "meta_ephemeris_type": 0,
        "meta_classification_type": "U",
        "meta_norad_cat_id": 66449,
        "meta_element_set_no": 999,
        "meta_rev_at_epoch": 452,
        "meta_bstar": 0.00088456,
        "meta_mean_motion_dot": 0.00051837,
        "meta_mean_motion_ddot": 0,
        "tle_line1": "1 66449U 25259AD  25336.50006943  .00051837  00000+0  88456-3 0  9995",
        "tle_line2": "2 66449  42.9998 107.1025 0001389 250.6783  71.5021 15.50547493  4520"
      },
      "geometry": {
        "type": "Point",
        "coordinates": [
          42.741447480455044,
          -39.57799176634369
        ]
      }
    },
    {
      "type": "Feature",
      "properties": {
        "norad_id": 66450,
        "name": "STARLINK-35334",
        "group": "last-30-days",
        "lat": -38.95504795671597,
        "lon": 45.06199437319862,
        "alt_km": 417.5767427235005,
        "timestamp": "2025-12-02T19:35:49.342765+00:00",
        "meta_object_name": "STARLINK-35334",
        "meta_object_id": "2025-259AE",
        "meta_epoch": "2025-12-02T12:00:05.998752",
        "meta_mean_motion": 15.50536611,
        "meta_eccentricity": 0.0001435,
        "meta_inclination": 42.9998,
        "meta_ra_of_asc_node": 107.0969,
        "meta_arg_of_pericenter": 244.3882,
        "meta_mean_anomaly": 79.7094,
        "meta_ephemeris_type": 0,
        "meta_classification_type": "U",
        "meta_norad_cat_id": 66450,
        "meta_element_set_no": 999,
        "meta_rev_at_epoch": 463,
        "meta_bstar": 0.00095664,
        "meta_mean_motion_dot": 0.00056098,
        "meta_mean_motion_ddot": 0,
        "tle_line1": "1 66450U 25259AE  25336.50006943  .00056098  00000+0  95664-3 0  9990",
        "tle_line2": "2 66450  42.9998 107.0969 0001435 244.3882  79.7094 15.50536611  4632"
      },
      "geometry": {
        "type": "Point",
        "coordinates": [
          45.06199437319862,
          -38.95504795671597
        ]
      }
    },
    {
      "type": "Feature",
      "properties": {
        "norad_id": 66454,
        "name": "VIASAT-3 F2",
        "group": "last-30-days",
        "lat": 5.437018618483662,
        "lon": 9.92322632163257,
        "alt_km": 18367.10966974083,
        "timestamp": "2025-12-02T19:35:49.342778+00:00",
        "meta_object_name": "VIASAT-3 F2",
        "meta_object_id": "2025-261A",
        "meta_epoch": "2025-12-01T18:36:31.725216",
        "meta_mean_motion": 2.2815034,
        "meta_eccentricity": 0.23416718,
        "meta_inclination": 5.5759,
        "meta_ra_of_asc_node": 293.3594,
        "meta_arg_of_pericenter": 183.7944,
        "meta_mean_anomaly": 144.3606,
        "meta_ephemeris_type": 0,
        "meta_classification_type": "U",
        "meta_norad_cat_id": 66454,
        "meta_element_set_no": 999,
        "meta_rev_at_epoch": 39,
        "meta_bstar": 0,
        "meta_mean_motion_dot": -4.6e-07,
        "meta_mean_motion_ddot": 0,
        "tle_line1": "1 66454U 25261A   25335.77536719 -.00000046  00000+0  00000+0 0  9993",
        "tle_line2": "2 66454   5.5759 293.3594 2341671 183.7944 144.3606  2.28150340   394"
      },
      "geometry": {
        "type": "Point",
        "coordinates": [
          9.92322632163257,
          5.437018618483662
        ]
      }
    },
    {
      "type": "Feature",
      "properties": {
        "norad_id": 66455,
        "name": "ATLAS 5 CENTAUR R/B",
        "group": "last-30-days",
        "lat": 5.765224652709748,
        "lon": 1.6424888949282062,
        "alt_km": 19203.375003529658,
        "timestamp": "2025-12-02T19:35:49.342789+00:00",
        "meta_object_name": "ATLAS 5 CENTAUR R/B",
        "meta_object_id": "2025-261B",
        "meta_epoch": "2025-12-02T05:50:10.707936",
        "meta_mean_motion": 2.28259428,
        "meta_eccentricity": 0.23297418,
        "meta_inclination": 6.1597,
        "meta_ra_of_asc_node": 292.6661,
        "meta_arg_of_pericenter": 184.3734,
        "meta_mean_anomaly": 159.3781,
        "meta_ephemeris_type": 0,
        "meta_classification_type": "U",
        "meta_norad_cat_id": 66455,
        "meta_element_set_no": 999,
        "meta_rev_at_epoch": 40,
        "meta_bstar": 0,
        "meta_mean_motion_dot": -4.8e-07,
        "meta_mean_motion_ddot": 0,
        "tle_line1": "1 66455U 25261B   25336.24317949 -.00000048  00000+0  00000+0 0  9991",
        "tle_line2": "2 66455   6.1597 292.6661 2329741 184.3734 159.3781  2.28259428   406"
      },
      "geometry": {
        "type": "Point",
        "coordinates": [
          1.6424888949282062,
          5.765224652709748
        ]
      }
    }
  ]
}